[{"OBJECT_NAME":"TRANSPORTER-16 OBJECT CD","OBJECT_ID":"2026-067CD","EPOCH":"2026-04-17T19:41:51.225792","MEAN_MOTION":14.91126889,"ECCENTRICITY":0.00014396,"INCLINATION":97.7524,"RA_OF_ASC_NODE":67.0036,"ARG_OF_PERICENTER":243.7559,"MEAN_ANOMALY":116.3511,"EPHEMERIS_TYPE":0,"CLASSIFICATION_TYPE":"U","NORAD_CAT_ID":68491,"ELEMENT_SET_NO":999,"REV_AT_EPOCH":272,"BSTAR":0.00025680871,"MEAN_MOTION_DOT":2.492e-5,"MEAN_MOTION_DDOT":0},{"OBJECT_NAME":"TRANSPORTER-16 OBJECT CE","OBJECT_ID":"2026-067CE","EPOCH":"2026-04-18T13:25:57.665280","MEAN_MOTION":14.91082219,"ECCENTRICITY":0.00017214,"INCLINATION":97.7531,"RA_OF_ASC_NODE":67.7278,"ARG_OF_PERICENTER":238.6466,"MEAN_ANOMALY":121.4585,"EPHEMERIS_TYPE":0,"CLASSIFICATION_TYPE":"U","NORAD_CAT_ID":68492,"ELEMENT_SET_NO":999,"REV_AT_EPOCH":283,"BSTAR":0.00046223329,"MEAN_MOTION_DOT":4.525e-5,"MEAN_MOTION_DDOT":0},{"OBJECT_NAME":"TRANSPORTER-16 OBJECT CF","OBJECT_ID":"2026-067CF","EPOCH":"2026-04-17T19:41:41.312256","MEAN_MOTION":14.91130076,"ECCENTRICITY":0.00027516,"INCLINATION":97.7614,"RA_OF_ASC_NODE":67.0185,"ARG_OF_PERICENTER":203.7445,"MEAN_ANOMALY":156.3647,"EPHEMERIS_TYPE":0,"CLASSIFICATION_TYPE":"U","NORAD_CAT_ID":68493,"ELEMENT_SET_NO":999,"REV_AT_EPOCH":272,"BSTAR":0.00022925081,"MEAN_MOTION_DOT":2.218e-5,"MEAN_MOTION_DDOT":0},{"OBJECT_NAME":"TRANSPORTER-16 OBJECT CG","OBJECT_ID":"2026-067CG","EPOCH":"2026-04-17T19:36:55.113984","MEAN_MOTION":14.91381058,"ECCENTRICITY":0.00013854,"INCLINATION":97.757,"RA_OF_ASC_NODE":67.0157,"ARG_OF_PERICENTER":174.9724,"MEAN_ANOMALY":185.1508,"EPHEMERIS_TYPE":0,"CLASSIFICATION_TYPE":"U","NORAD_CAT_ID":68494,"ELEMENT_SET_NO":999,"REV_AT_EPOCH":272,"BSTAR":0.00015340785,"MEAN_MOTION_DOT":1.476e-5,"MEAN_MOTION_DDOT":0},{"OBJECT_NAME":"TRANSPORTER-16 OBJECT CH","OBJECT_ID":"2026-067CH","EPOCH":"2026-04-17T21:32:41.420832","MEAN_MOTION":14.89025231,"ECCENTRICITY":0.00023278,"INCLINATION":97.7566,"RA_OF_ASC_NODE":67.062,"ARG_OF_PERICENTER":175.6571,"MEAN_ANOMALY":184.4667,"EPHEMERIS_TYPE":0,"CLASSIFICATION_TYPE":"U","NORAD_CAT_ID":68495,"ELEMENT_SET_NO":999,"REV_AT_EPOCH":273,"BSTAR":4.3980447e-5,"MEAN_MOTION_DOT":3.6e-6,"MEAN_MOTION_DDOT":0},{"OBJECT_NAME":"TRANSPORTER-16 OBJECT CJ","OBJECT_ID":"2026-067CJ","EPOCH":"2026-04-17T21:03:52.181856","MEAN_MOTION":14.91927972,"ECCENTRICITY":0.00029156,"INCLINATION":97.7566,"RA_OF_ASC_NODE":67.0899,"ARG_OF_PERICENTER":117.6098,"MEAN_ANOMALY":242.5418,"EPHEMERIS_TYPE":0,"CLASSIFICATION_TYPE":"U","NORAD_CAT_ID":68496,"ELEMENT_SET_NO":999,"REV_AT_EPOCH":273,"BSTAR":0.00011100241,"MEAN_MOTION_DOT":1.067e-5,"MEAN_MOTION_DDOT":0},{"OBJECT_NAME":"TRANSPORTER-16 OBJECT CK","OBJECT_ID":"2026-067CK","EPOCH":"2026-04-17T19:27:41.563008","MEAN_MOTION":14.91908926,"ECCENTRICITY":0.00026928,"INCLINATION":97.7549,"RA_OF_ASC_NODE":67.0203,"ARG_OF_PERICENTER":112.4869,"MEAN_ANOMALY":247.6635,"EPHEMERIS_TYPE":0,"CLASSIFICATION_TYPE":"U","NORAD_CAT_ID":68497,"ELEMENT_SET_NO":999,"REV_AT_EPOCH":272,"BSTAR":0.00014617355,"MEAN_MOTION_DOT":1.423e-5,"MEAN_MOTION_DDOT":0},{"OBJECT_NAME":"TRANSPORTER-16 OBJECT CL","OBJECT_ID":"2026-067CL","EPOCH":"2026-04-18T14:59:17.070432","MEAN_MOTION":14.91229995,"ECCENTRICITY":7.986e-5,"INCLINATION":97.7507,"RA_OF_ASC_NODE":67.7934,"ARG_OF_PERICENTER":248.3279,"MEAN_ANOMALY":111.7855,"EPHEMERIS_TYPE":0,"CLASSIFICATION_TYPE":"U","NORAD_CAT_ID":68498,"ELEMENT_SET_NO":999,"REV_AT_EPOCH":284,"BSTAR":0.00019563458,"MEAN_MOTION_DOT":1.89e-5,"MEAN_MOTION_DDOT":0},{"OBJECT_NAME":"TRANSPORTER-16 OBJECT CM","OBJECT_ID":"2026-067CM","EPOCH":"2026-04-17T19:36:38.394720","MEAN_MOTION":14.91384438,"ECCENTRICITY":6.818e-5,"INCLINATION":97.7542,"RA_OF_ASC_NODE":67.0108,"ARG_OF_PERICENTER":147.3687,"MEAN_ANOMALY":212.7573,"EPHEMERIS_TYPE":0,"CLASSIFICATION_TYPE":"U","NORAD_CAT_ID":68499,"ELEMENT_SET_NO":999,"REV_AT_EPOCH":272,"BSTAR":0.00011312369,"MEAN_MOTION_DOT":1.074e-5,"MEAN_MOTION_DDOT":0},{"OBJECT_NAME":"TRANSPORTER-16 OBJECT CN","OBJECT_ID":"2026-067CN","EPOCH":"2026-04-17T19:36:09.684000","MEAN_MOTION":14.91426754,"ECCENTRICITY":0.00014046,"INCLINATION":97.7577,"RA_OF_ASC_NODE":67.0177,"ARG_OF_PERICENTER":167.5246,"MEAN_ANOMALY":192.6008,"EPHEMERIS_TYPE":0,"CLASSIFICATION_TYPE":"U","NORAD_CAT_ID":68500,"ELEMENT_SET_NO":999,"REV_AT_EPOCH":272,"BSTAR":0.00015648528,"MEAN_MOTION_DOT":1.508e-5,"MEAN_MOTION_DDOT":0},{"OBJECT_NAME":"TRANSPORTER-16 OBJECT CP","OBJECT_ID":"2026-067CP","EPOCH":"2026-04-17T19:40:03.113472","MEAN_MOTION":14.91234325,"ECCENTRICITY":0.00022426,"INCLINATION":97.7589,"RA_OF_ASC_NODE":67.0157,"ARG_OF_PERICENTER":201.7168,"MEAN_ANOMALY":158.3956,"EPHEMERIS_TYPE":0,"CLASSIFICATION_TYPE":"U","NORAD_CAT_ID":68501,"ELEMENT_SET_NO":999,"REV_AT_EPOCH":272,"BSTAR":0.00019311811,"MEAN_MOTION_DOT":1.865e-5,"MEAN_MOTION_DDOT":0},{"OBJECT_NAME":"TRANSPORTER-16 OBJECT CQ","OBJECT_ID":"2026-067CQ","EPOCH":"2026-04-17T14:45:08.850528","MEAN_MOTION":14.9149433,"ECCENTRICITY":0.00015938,"INCLINATION":97.7583,"RA_OF_ASC_NODE":66.8219,"ARG_OF_PERICENTER":159.8582,"MEAN_ANOMALY":200.27,"EPHEMERIS_TYPE":0,"CLASSIFICATION_TYPE":"U","NORAD_CAT_ID":68502,"ELEMENT_SET_NO":999,"REV_AT_EPOCH":269,"BSTAR":0.00015164278,"MEAN_MOTION_DOT":1.462e-5,"MEAN_MOTION_DDOT":0},{"OBJECT_NAME":"TRANSPORTER-16 OBJECT CR","OBJECT_ID":"2026-067CR","EPOCH":"2026-04-17T19:48:10.777536","MEAN_MOTION":14.90736805,"ECCENTRICITY":0.00029336,"INCLINATION":97.7528,"RA_OF_ASC_NODE":66.9991,"ARG_OF_PERICENTER":248.7018,"MEAN_ANOMALY":111.3887,"EPHEMERIS_TYPE":0,"CLASSIFICATION_TYPE":"U","NORAD_CAT_ID":68503,"ELEMENT_SET_NO":999,"REV_AT_EPOCH":272,"BSTAR":0.00013542091,"MEAN_MOTION_DOT":1.275e-5,"MEAN_MOTION_DDOT":0},{"OBJECT_NAME":"TRANSPORTER-16 OBJECT CS","OBJECT_ID":"2026-067CS","EPOCH":"2026-04-17T19:30:27.369792","MEAN_MOTION":14.91751771,"ECCENTRICITY":0.00023791,"INCLINATION":97.7583,"RA_OF_ASC_NODE":67.0241,"ARG_OF_PERICENTER":134.589,"MEAN_ANOMALY":225.5523,"EPHEMERIS_TYPE":0,"CLASSIFICATION_TYPE":"U","NORAD_CAT_ID":68504,"ELEMENT_SET_NO":999,"REV_AT_EPOCH":272,"BSTAR":0.00015473551,"MEAN_MOTION_DOT":1.503e-5,"MEAN_MOTION_DDOT":0},{"OBJECT_NAME":"TRANSPORTER-16 OBJECT CT","OBJECT_ID":"2026-067CT","EPOCH":"2026-04-17T19:50:26.993184","MEAN_MOTION":14.90636918,"ECCENTRICITY":0.00038446,"INCLINATION":97.7568,"RA_OF_ASC_NODE":67.0027,"ARG_OF_PERICENTER":237.6549,"MEAN_ANOMALY":122.4298,"EPHEMERIS_TYPE":0,"CLASSIFICATION_TYPE":"U","NORAD_CAT_ID":68505,"ELEMENT_SET_NO":999,"REV_AT_EPOCH":272,"BSTAR":0.00016757688,"MEAN_MOTION_DOT":1.587e-5,"MEAN_MOTION_DDOT":0},{"OBJECT_NAME":"STARLINK-37262","OBJECT_ID":"2026-068A","EPOCH":"2026-04-17T22:15:01.878048","MEAN_MOTION":15.80928777,"ECCENTRICITY":9.165e-5,"INCLINATION":53.1575,"RA_OF_ASC_NODE":312.6896,"ARG_OF_PERICENTER":66.1337,"MEAN_ANOMALY":293.9782,"EPHEMERIS_TYPE":0,"CLASSIFICATION_TYPE":"U","NORAD_CAT_ID":68508,"ELEMENT_SET_NO":999,"REV_AT_EPOCH":287,"BSTAR":0.00094064026,"MEAN_MOTION_DOT":0.00189571,"MEAN_MOTION_DDOT":0}]
